{
  "type": "FeatureCollection",
  "features": [
    {
      "type": "Feature",
      "properties": {
        "norad_id": 43057,
        "name": "GSAT0217 (GALILEO 21)",
        "group": "gnss",
        "lat": -50.10374181163245,
        "lon": 169.8112414911969,
        "alt_km": 23223.79527109205,
        "timestamp": "2025-12-24T14:43:29.245427+00:00",
        "meta_object_name": "GSAT0217 (GALILEO 21)",
        "meta_object_id": "2017-079C",
        "meta_epoch": "2025-12-21T04:57:56.651616",
        "meta_mean_motion": 1.70474014,
        "meta_eccentricity": 0.00027256,
        "meta_inclination": 55.1257,
        "meta_ra_of_asc_node": 226.4024,
        "meta_arg_of_pericenter": 351.227,
        "meta_mean_anomaly": 8.8769,
        "meta_ephemeris_type": 0,
        "meta_classification_type": "U",
        "meta_norad_cat_id": 43057,
        "meta_element_set_no": 999,
        "meta_rev_at_epoch": 4995,
        "meta_bstar": 0,
        "meta_mean_motion_dot": 7.3e-07,
        "meta_mean_motion_ddot": 0,
        "tle_line1": "1 43057U 17079C   25355.20690569  .00000073  00000+0  00000+0 0  9998",
        "tle_line2": "2 43057  55.1257 226.4024 0002725 351.2270   8.8769  1.70474014 49955"
      },
      "geometry": {
        "type": "Point",
        "coordinates": [
          169.8112414911969,
          -50.10374181163245
        ]
      }
    },
    {
      "type": "Feature",
      "properties": {
        "norad_id": 43058,
        "name": "GSAT0218 (GALILEO 22)",
        "group": "gnss",
        "lat": 19.72310824776708,
        "lon": 31.846143367001655,
        "alt_km": 23226.551092566962,
        "timestamp": "2025-12-24T14:43:29.245438+00:00",
        "meta_object_name": "GSAT0218 (GALILEO 22)",
        "meta_object_id": "2017-079D",
        "meta_epoch": "2025-12-22T00:19:29.615808",
        "meta_mean_motion": 1.70473914,
        "meta_eccentricity": 0.00024164,
        "meta_inclination": 55.1256,
        "meta_ra_of_asc_node": 226.3779,
        "meta_arg_of_pericenter": 315.4078,
        "meta_mean_anomaly": 44.6792,
        "meta_ephemeris_type": 0,
        "meta_classification_type": "U",
        "meta_norad_cat_id": 43058,
        "meta_element_set_no": 999,
        "meta_rev_at_epoch": 4999,
        "meta_bstar": 0,
        "meta_mean_motion_dot": 7.3e-07,
        "meta_mean_motion_ddot": 0,
        "tle_line1": "1 43058U 17079D   25356.01353722  .00000073  00000+0  00000+0 0  9996",
        "tle_line2": "2 43058  55.1256 226.3779 0002416 315.4078  44.6792  1.70473914 49992"
      },
      "geometry": {
        "type": "Point",
        "coordinates": [
          31.846143367001655,
          19.72310824776708
        ]
      }
    },
    {
      "type": "Feature",
      "properties": {
        "norad_id": 43107,
        "name": "BEIDOU-3 M7 (C27)",
        "group": "gnss",
        "lat": -22.252584556765328,
        "lon": 145.35497119998715,
        "alt_km": 21537.28818386896,
        "timestamp": "2025-12-24T14:43:29.245449+00:00",
        "meta_object_name": "BEIDOU-3 M7 (C27)",
        "meta_object_id": "2018-003A",
        "meta_epoch": "2025-12-23T05:31:08.538816",
        "meta_mean_motion": 1.86232625,
        "meta_eccentricity": 0.0002961,
        "meta_inclination": 54.4874,
        "meta_ra_of_asc_node": 308.4506,
        "meta_arg_of_pericenter": 66.5422,
        "meta_mean_anomaly": 293.4915,
        "meta_ephemeris_type": 0,
        "meta_classification_type": "U",
        "meta_norad_cat_id": 43107,
        "meta_element_set_no": 999,
        "meta_rev_at_epoch": 5407,
        "meta_bstar": 0,
        "meta_mean_motion_dot": -5.5e-07,
        "meta_mean_motion_ddot": 0,
        "tle_line1": "1 43107U 18003A   25357.22995994 -.00000055  00000+0  00000+0 0  9997",
        "tle_line2": "2 43107  54.4874 308.4506 0002961  66.5422 293.4915  1.86232625 54072"
      },
      "geometry": {
        "type": "Point",
        "coordinates": [
          145.35497119998715,
          -22.252584556765328
        ]
      }
    },
    {
      "type": "Feature",
      "properties": {
        "norad_id": 43108,
        "name": "BEIDOU-3 M8 (C28)",
        "group": "gnss",
        "lat": -47.258517025992276,
        "lon": 178.91349968181484,
        "alt_km": 21522.85335744471,
        "timestamp": "2025-12-24T14:43:29.245460+00:00",
        "meta_object_name": "BEIDOU-3 M8 (C28)",
        "meta_object_id": "2018-003B",
        "meta_epoch": "2025-12-23T17:05:08.287008",
        "meta_mean_motion": 1.86231111,
        "meta_eccentricity": 0.00045887,
        "meta_inclination": 54.4799,
        "meta_ra_of_asc_node": 308.4164,
        "meta_arg_of_pericenter": 279.1065,
        "meta_mean_anomaly": 80.8458,
        "meta_ephemeris_type": 0,
        "meta_classification_type": "U",
        "meta_norad_cat_id": 43108,
        "meta_element_set_no": 999,
        "meta_rev_at_epoch": 5409,
        "meta_bstar": 0,
        "meta_mean_motion_dot": -5.4e-07,
        "meta_mean_motion_ddot": 0,
        "tle_line1": "1 43108U 18003B   25357.71190147 -.00000054  00000+0  00000+0 0  9998",
        "tle_line2": "2 43108  54.4799 308.4164 0004588 279.1065  80.8458  1.86231111 54092"
      },
      "geometry": {
        "type": "Point",
        "coordinates": [
          178.91349968181484,
          -47.258517025992276
        ]
      }
    },
    {
      "type": "Feature",
      "properties": {
        "norad_id": 43207,
        "name": "BEIDOU-3 M4 (C22)",
        "group": "gnss",
        "lat": -41.00660291257211,
        "lon": 33.81328394967314,
        "alt_km": 21526.284347217148,
        "timestamp": "2025-12-24T14:43:29.245471+00:00",
        "meta_object_name": "BEIDOU-3 M4 (C22)",
        "meta_object_id": "2018-018A",
        "meta_epoch": "2025-12-24T03:41:38.933376",
        "meta_mean_motion": 1.86231211,
        "meta_eccentricity": 0.00041659,
        "meta_inclination": 56.4949,
        "meta_ra_of_asc_node": 68.9271,
        "meta_arg_of_pericenter": 3.2866,
        "meta_mean_anomaly": 356.7703,
        "meta_ephemeris_type": 0,
        "meta_classification_type": "U",
        "meta_norad_cat_id": 43207,
        "meta_element_set_no": 999,
        "meta_rev_at_epoch": 5348,
        "meta_bstar": 0,
        "meta_mean_motion_dot": -2.4e-07,
        "meta_mean_motion_ddot": 0,
        "tle_line1": "1 43207U 18018A   25358.15392284 -.00000024  00000+0  00000+0 0  9996",
        "tle_line2": "2 43207  56.4949  68.9271 0004165   3.2866 356.7703  1.86231211 53485"
      },
      "geometry": {
        "type": "Point",
        "coordinates": [
          33.81328394967314,
          -41.00660291257211
        ]
      }
    },
    {
      "type": "Feature",
      "properties": {
        "norad_id": 43208,
        "name": "BEIDOU-3 M3 (C21)",
        "group": "gnss",
        "lat": -55.952841580105314,
        "lon": -32.7922421145327,
        "alt_km": 21521.419593415525,
        "timestamp": "2025-12-24T14:43:29.245485+00:00",
        "meta_object_name": "BEIDOU-3 M3 (C21)",
        "meta_object_id": "2018-018B",
        "meta_epoch": "2025-12-24T05:17:24.764064",
        "meta_mean_motion": 1.86231449,
        "meta_eccentricity": 0.00070747,
        "meta_inclination": 56.4943,
        "meta_ra_of_asc_node": 68.9291,
        "meta_arg_of_pericenter": 313.8802,
        "meta_mean_anomaly": 46.1157,
        "meta_ephemeris_type": 0,
        "meta_classification_type": "U",
        "meta_norad_cat_id": 43208,
        "meta_element_set_no": 999,
        "meta_rev_at_epoch": 5348,
        "meta_bstar": 0,
        "meta_mean_motion_dot": -2.4e-07,
        "meta_mean_motion_ddot": 0,
        "tle_line1": "1 43208U 18018B   25358.22042551 -.00000024  00000+0  00000+0 0  9994",
        "tle_line2": "2 43208  56.4943  68.9291 0007074 313.8802  46.1157  1.86231449 53480"
      },
      "geometry": {
        "type": "Point",
        "coordinates": [
          -32.7922421145327,
          -55.952841580105314
        ]
      }
    },
    {
      "type": "Feature",
      "properties": {
        "norad_id": 43245,
        "name": "BEIDOU-3 M9 (C29)",
        "group": "gnss",
        "lat": 45.548929426614094,
        "lon": 79.09584754837266,
        "alt_km": 21527.121078308963,
        "timestamp": "2025-12-24T14:43:29.245498+00:00",
        "meta_object_name": "BEIDOU-3 M9 (C29)",
        "meta_object_id": "2018-029A",
        "meta_epoch": "2025-12-23T21:35:38.632416",
        "meta_mean_motion": 1.86228339,
        "meta_eccentricity": 0.000155,
        "meta_inclination": 54.3557,
        "meta_ra_of_asc_node": 306.0793,
        "meta_arg_of_pericenter": 289.9635,
        "meta_mean_anomaly": 70.0266,
        "meta_ephemeris_type": 0,
        "meta_classification_type": "U",
        "meta_norad_cat_id": 43245,
        "meta_element_set_no": 999,
        "meta_rev_at_epoch": 5263,
        "meta_bstar": 0,
        "meta_mean_motion_dot": -5.2e-07,
        "meta_mean_motion_ddot": 0,
        "tle_line1": "1 43245U 18029A   25357.89975269 -.00000052  00000+0  00000+0 0  9991",
        "tle_line2": "2 43245  54.3557 306.0793 0001550 289.9635  70.0266  1.86228339 52639"
      },
      "geometry": {
        "type": "Point",
        "coordinates": [
          79.09584754837266,
          45.548929426614094
        ]
      }
    }
  ]
}